HULIANWANG DIGUI-97     
1 66413U 25258B   26088.17285213 -.00000079  00000+0  96627-4 0  9995
2 66413  50.0002 222.8618 0000654 188.6930 171.3930 13.29334529 19081
HULIANWANG DIGUI-98     
1 66414U 25258C   26088.16444756 -.00000090  00000+0  73191-4 0  9998
2 66414  50.0038 222.8668 0000728 194.4254 165.6597 13.29336180 19082
HULIANWANG DIGUI-99     
1 66415U 25258D   26088.13110737 -.00000092  00000+0  68601-4 0  9997
2 66415  50.0037 222.6872 0000563 185.4171 174.6695 13.29333515 19079
HULIANWANG DIGUI-100    
1 66416U 25258E   26088.15609177 -.00000091  00000+0  70332-4 0  9994
2 66416  50.0041 222.8260 0000552 186.3914 173.6951 13.29336629 19096
HULIANWANG DIGUI-101    
1 66417U 25258F   26088.14777954 -.00000099  00000+0  53630-4 0  9993
2 66417  49.9991 222.7152 0000563 182.8411 177.2458 13.29334634 19098
HULIANWANG DIGUI-102    
1 66418U 25258G   26088.12265602 -.00000099  00000+0  54007-4 0  9993
2 66418  50.0005 222.5979 0000611 193.0924 166.9932 13.29336472 19083
HULIANWANG DIGUI-103    
1 66419U 25258H   26088.18951844 -.00000086  00000+0  81565-4 0  9995
2 66419  49.9998 222.2758 0000499 185.0285 175.0582 13.29335630 19097
HULIANWANG DIGUI-104    
1 66420U 25258J   26088.18119330 -.00000092  00000+0  69680-4 0  9994
2 66420  50.0015 222.2581 0000641 194.6954 165.3900 13.29334927 19087
HULIANWANG DIGUI-105    
1 66915U 25285A   26088.18513960 -.00000068  00000+0  12152-3 0  9994
2 66915  50.0047  73.1410 0000474   8.8851 351.2030 13.29332957 15415
HULIANWANG DIGUI-106    
1 66916U 25285B   26085.39484699 -.00518302  00000+0 -11575+1 0  9992
2 66916  50.0297  83.0708 0005653 210.3265 149.7281 13.29707727 15044
HULIANWANG DIGUI-107    
1 66917U 25285C   26088.16844473 -.00000072  00000+0  11156-3 0  9998
2 66917  50.0023  73.0322 0000438  10.4575 349.6307 13.29332331 15418
HULIANWANG DIGUI-108    
1 66918U 25285D   26088.23525387 -.00000062  00000+0  13272-3 0  9997
2 66918  50.0045  72.7398 0000430  12.4886 347.5997 13.29333059 15422
HULIANWANG DIGUI-109    
1 66919U 25285E   26088.22690721 -.00000059  00000+0  14055-3 0  9998
2 66919  50.0070  72.7210 0000422  10.0884 349.9997 13.29333011 15432
HULIANWANG DIGUI-110    
1 66920U 25285F   26088.21857208 -.00000069  00000+0  11764-3 0  9999
2 66920  50.0101  72.7089 0000441   9.9336 350.1545 13.29332391 15425
HULIANWANG DIGUI-111    
1 66921U 25285G   26088.21021928 -.00000072  00000+0  11177-3 0  9994
2 66921  50.0118  72.6818 0000434  10.4855 349.6026 13.29332407 15423
HULIANWANG DIGUI-112    
1 66922U 25285H   26088.20185090 -.00000078  00000+0  99888-4 0  9997
2 66922  50.0081  72.6039 0000446  11.0097 349.0785 13.29333074 15423
