[{"OBJECT_NAME":"HULIANWANG DIGUI-97","OBJECT_ID":"2025-258B","EPOCH":"2026-03-29T04:08:54.424032","MEAN_MOTION":13.29334529,"ECCENTRICITY":6.54e-5,"INCLINATION":50.0002,"RA_OF_ASC_NODE":222.8618,"ARG_OF_PERICENTER":188.693,"MEAN_ANOMALY":171.393,"EPHEMERIS_TYPE":0,"CLASSIFICATION_TYPE":"U","NORAD_CAT_ID":66413,"ELEMENT_SET_NO":999,"REV_AT_EPOCH":1908,"BSTAR":9.6627e-5,"MEAN_MOTION_DOT":-7.9e-7,"MEAN_MOTION_DDOT":0},{"OBJECT_NAME":"HULIANWANG DIGUI-98","OBJECT_ID":"2025-258C","EPOCH":"2026-03-29T03:56:48.269184","MEAN_MOTION":13.2933618,"ECCENTRICITY":7.28e-5,"INCLINATION":50.0038,"RA_OF_ASC_NODE":222.8668,"ARG_OF_PERICENTER":194.4254,"MEAN_ANOMALY":165.6597,"EPHEMERIS_TYPE":0,"CLASSIFICATION_TYPE":"U","NORAD_CAT_ID":66414,"ELEMENT_SET_NO":999,"REV_AT_EPOCH":1908,"BSTAR":7.3191e-5,"MEAN_MOTION_DOT":-9.0e-7,"MEAN_MOTION_DDOT":0},{"OBJECT_NAME":"HULIANWANG DIGUI-99","OBJECT_ID":"2025-258D","EPOCH":"2026-03-29T03:08:47.676768","MEAN_MOTION":13.29333515,"ECCENTRICITY":5.63e-5,"INCLINATION":50.0037,"RA_OF_ASC_NODE":222.6872,"ARG_OF_PERICENTER":185.4171,"MEAN_ANOMALY":174.6695,"EPHEMERIS_TYPE":0,"CLASSIFICATION_TYPE":"U","NORAD_CAT_ID":66415,"ELEMENT_SET_NO":999,"REV_AT_EPOCH":1907,"BSTAR":6.8601e-5,"MEAN_MOTION_DOT":-9.2e-7,"MEAN_MOTION_DDOT":0},{"OBJECT_NAME":"HULIANWANG DIGUI-100","OBJECT_ID":"2025-258E","EPOCH":"2026-03-29T03:44:46.328928","MEAN_MOTION":13.29336629,"ECCENTRICITY":5.52e-5,"INCLINATION":50.0041,"RA_OF_ASC_NODE":222.826,"ARG_OF_PERICENTER":186.3914,"MEAN_ANOMALY":173.6951,"EPHEMERIS_TYPE":0,"CLASSIFICATION_TYPE":"U","NORAD_CAT_ID":66416,"ELEMENT_SET_NO":999,"REV_AT_EPOCH":1909,"BSTAR":7.0332e-5,"MEAN_MOTION_DOT":-9.1e-7,"MEAN_MOTION_DDOT":0},{"OBJECT_NAME":"HULIANWANG DIGUI-101","OBJECT_ID":"2025-258F","EPOCH":"2026-03-29T03:32:48.152256","MEAN_MOTION":13.29334634,"ECCENTRICITY":5.63e-5,"INCLINATION":49.9991,"RA_OF_ASC_NODE":222.7152,"ARG_OF_PERICENTER":182.8411,"MEAN_ANOMALY":177.2458,"EPHEMERIS_TYPE":0,"CLASSIFICATION_TYPE":"U","NORAD_CAT_ID":66417,"ELEMENT_SET_NO":999,"REV_AT_EPOCH":1909,"BSTAR":5.363e-5,"MEAN_MOTION_DOT":-9.9e-7,"MEAN_MOTION_DDOT":0},{"OBJECT_NAME":"HULIANWANG DIGUI-102","OBJECT_ID":"2025-258G","EPOCH":"2026-03-29T02:56:37.480128","MEAN_MOTION":13.29336472,"ECCENTRICITY":6.11e-5,"INCLINATION":50.0005,"RA_OF_ASC_NODE":222.5979,"ARG_OF_PERICENTER":193.0924,"MEAN_ANOMALY":166.9932,"EPHEMERIS_TYPE":0,"CLASSIFICATION_TYPE":"U","NORAD_CAT_ID":66418,"ELEMENT_SET_NO":999,"REV_AT_EPOCH":1908,"BSTAR":5.4007e-5,"MEAN_MOTION_DOT":-9.9e-7,"MEAN_MOTION_DDOT":0},{"OBJECT_NAME":"HULIANWANG DIGUI-103","OBJECT_ID":"2025-258H","EPOCH":"2026-03-29T04:32:54.393216","MEAN_MOTION":13.2933563,"ECCENTRICITY":4.99e-5,"INCLINATION":49.9998,"RA_OF_ASC_NODE":222.2758,"ARG_OF_PERICENTER":185.0285,"MEAN_ANOMALY":175.0582,"EPHEMERIS_TYPE":0,"CLASSIFICATION_TYPE":"U","NORAD_CAT_ID":66419,"ELEMENT_SET_NO":999,"REV_AT_EPOCH":1909,"BSTAR":8.1565e-5,"MEAN_MOTION_DOT":-8.6e-7,"MEAN_MOTION_DDOT":0},{"OBJECT_NAME":"HULIANWANG DIGUI-104","OBJECT_ID":"2025-258J","EPOCH":"2026-03-29T04:20:55.101120","MEAN_MOTION":13.29334927,"ECCENTRICITY":6.41e-5,"INCLINATION":50.0015,"RA_OF_ASC_NODE":222.2581,"ARG_OF_PERICENTER":194.6954,"MEAN_ANOMALY":165.39,"EPHEMERIS_TYPE":0,"CLASSIFICATION_TYPE":"U","NORAD_CAT_ID":66420,"ELEMENT_SET_NO":999,"REV_AT_EPOCH":1908,"BSTAR":6.968e-5,"MEAN_MOTION_DOT":-9.2e-7,"MEAN_MOTION_DDOT":0},{"OBJECT_NAME":"HULIANWANG DIGUI-105","OBJECT_ID":"2025-285A","EPOCH":"2026-03-29T04:26:36.061440","MEAN_MOTION":13.29332957,"ECCENTRICITY":4.74e-5,"INCLINATION":50.0047,"RA_OF_ASC_NODE":73.141,"ARG_OF_PERICENTER":8.8851,"MEAN_ANOMALY":351.203,"EPHEMERIS_TYPE":0,"CLASSIFICATION_TYPE":"U","NORAD_CAT_ID":66915,"ELEMENT_SET_NO":999,"REV_AT_EPOCH":1541,"BSTAR":0.00012152,"MEAN_MOTION_DOT":-6.8e-7,"MEAN_MOTION_DDOT":0},{"OBJECT_NAME":"HULIANWANG DIGUI-106","OBJECT_ID":"2025-285B","EPOCH":"2026-03-26T09:28:34.779936","MEAN_MOTION":13.29707727,"ECCENTRICITY":0.00056534,"INCLINATION":50.0297,"RA_OF_ASC_NODE":83.0708,"ARG_OF_PERICENTER":210.3265,"MEAN_ANOMALY":149.7281,"EPHEMERIS_TYPE":0,"CLASSIFICATION_TYPE":"U","NORAD_CAT_ID":66916,"ELEMENT_SET_NO":999,"REV_AT_EPOCH":1504,"BSTAR":-1.157496,"MEAN_MOTION_DOT":-0.00518302,"MEAN_MOTION_DDOT":0},{"OBJECT_NAME":"HULIANWANG DIGUI-107","OBJECT_ID":"2025-285C","EPOCH":"2026-03-29T04:02:33.624672","MEAN_MOTION":13.29332331,"ECCENTRICITY":4.38e-5,"INCLINATION":50.0023,"RA_OF_ASC_NODE":73.0322,"ARG_OF_PERICENTER":10.4575,"MEAN_ANOMALY":349.6307,"EPHEMERIS_TYPE":0,"CLASSIFICATION_TYPE":"U","NORAD_CAT_ID":66917,"ELEMENT_SET_NO":999,"REV_AT_EPOCH":1541,"BSTAR":0.00011156,"MEAN_MOTION_DOT":-7.2e-7,"MEAN_MOTION_DDOT":0},{"OBJECT_NAME":"HULIANWANG DIGUI-108","OBJECT_ID":"2025-285D","EPOCH":"2026-03-29T05:38:45.934368","MEAN_MOTION":13.29333059,"ECCENTRICITY":4.3e-5,"INCLINATION":50.0045,"RA_OF_ASC_NODE":72.7398,"ARG_OF_PERICENTER":12.4886,"MEAN_ANOMALY":347.5997,"EPHEMERIS_TYPE":0,"CLASSIFICATION_TYPE":"U","NORAD_CAT_ID":66918,"ELEMENT_SET_NO":999,"REV_AT_EPOCH":1542,"BSTAR":0.00013272,"MEAN_MOTION_DOT":-6.2e-7,"MEAN_MOTION_DDOT":0},{"OBJECT_NAME":"HULIANWANG DIGUI-109","OBJECT_ID":"2025-285E","EPOCH":"2026-03-29T05:26:44.782944","MEAN_MOTION":13.29333011,"ECCENTRICITY":4.22e-5,"INCLINATION":50.007,"RA_OF_ASC_NODE":72.721,"ARG_OF_PERICENTER":10.0884,"MEAN_ANOMALY":349.9997,"EPHEMERIS_TYPE":0,"CLASSIFICATION_TYPE":"U","NORAD_CAT_ID":66919,"ELEMENT_SET_NO":999,"REV_AT_EPOCH":1543,"BSTAR":0.00014055,"MEAN_MOTION_DOT":-5.9e-7,"MEAN_MOTION_DDOT":0},{"OBJECT_NAME":"HULIANWANG DIGUI-110","OBJECT_ID":"2025-285F","EPOCH":"2026-03-29T05:14:44.627712","MEAN_MOTION":13.29332391,"ECCENTRICITY":4.41e-5,"INCLINATION":50.0101,"RA_OF_ASC_NODE":72.7089,"ARG_OF_PERICENTER":9.9336,"MEAN_ANOMALY":350.1545,"EPHEMERIS_TYPE":0,"CLASSIFICATION_TYPE":"U","NORAD_CAT_ID":66920,"ELEMENT_SET_NO":999,"REV_AT_EPOCH":1542,"BSTAR":0.00011764,"MEAN_MOTION_DOT":-6.9e-7,"MEAN_MOTION_DDOT":0},{"OBJECT_NAME":"HULIANWANG DIGUI-111","OBJECT_ID":"2025-285G","EPOCH":"2026-03-29T05:02:42.945792","MEAN_MOTION":13.29332407,"ECCENTRICITY":4.34e-5,"INCLINATION":50.0118,"RA_OF_ASC_NODE":72.6818,"ARG_OF_PERICENTER":10.4855,"MEAN_ANOMALY":349.6026,"EPHEMERIS_TYPE":0,"CLASSIFICATION_TYPE":"U","NORAD_CAT_ID":66921,"ELEMENT_SET_NO":999,"REV_AT_EPOCH":1542,"BSTAR":0.00011177,"MEAN_MOTION_DOT":-7.2e-7,"MEAN_MOTION_DDOT":0},{"OBJECT_NAME":"HULIANWANG DIGUI-112","OBJECT_ID":"2025-285H","EPOCH":"2026-03-29T04:50:39.917760","MEAN_MOTION":13.29333074,"ECCENTRICITY":4.46e-5,"INCLINATION":50.0081,"RA_OF_ASC_NODE":72.6039,"ARG_OF_PERICENTER":11.0097,"MEAN_ANOMALY":349.0785,"EPHEMERIS_TYPE":0,"CLASSIFICATION_TYPE":"U","NORAD_CAT_ID":66922,"ELEMENT_SET_NO":999,"REV_AT_EPOCH":1542,"BSTAR":9.9888e-5,"MEAN_MOTION_DOT":-7.8e-7,"MEAN_MOTION_DDOT":0}]
